{"fetched_at":"2026-03-29T16:36:15Z","count":15609,"tles":[{"name":"TIANQI-6","line1":"1 46810U 20076D   26087.64014005  .00005094  00000+0  33827-3 0  9990","line2":"2 46810  34.9984 182.5991 0010557 182.9705 177.0943 15.06592324296424","category":"Other"}]}